{
  "type": "FeatureCollection",
  "features": [
    {
      "type": "Feature",
      "properties": {
        "norad_id": 31307,
        "name": "GALAXY 17 (G-17)",
        "group": "intelsat",
        "lat": -2.278895794406802,
        "lon": -33.22829288338761,
        "alt_km": 35780.790117475444,
        "timestamp": "2025-12-17T21:39:45.376153+00:00",
        "meta_object_name": "GALAXY 17 (G-17)",
        "meta_object_id": "2007-016B",
        "meta_epoch": "2025-12-17T12:55:17.368608",
        "meta_mean_motion": 1.00271938,
        "meta_eccentricity": 0.00055172,
        "meta_inclination": 2.5117,
        "meta_ra_of_asc_node": 82.2321,
        "meta_arg_of_pericenter": 168.2005,
        "meta_mean_anomaly": 304.83,
        "meta_ephemeris_type": 0,
        "meta_classification_type": "U",
        "meta_norad_cat_id": 31307,
        "meta_element_set_no": 999,
        "meta_rev_at_epoch": 6798,
        "meta_bstar": 0,
        "meta_mean_motion_dot": -1.84e-06,
        "meta_mean_motion_ddot": 0,
        "tle_line1": "1 31307U 07016B   25351.53839547 -.00000184  00000+0  00000+0 0  9990",
        "tle_line2": "2 31307   2.5117  82.2321 0005517 168.2005 304.8300  1.00271938 67989"
      },
      "geometry": {
        "type": "Point",
        "coordinates": [
          -33.22829288338761,
          -2.278895794406802
        ]
      }
    },
    {
      "type": "Feature",
      "properties": {
        "norad_id": 31862,
        "name": "DIRECTV 10",
        "group": "intelsat",
        "lat": 0.0062831069725731385,
        "lon": -51.102046018106144,
        "alt_km": 35787.04174566519,
        "timestamp": "2025-12-17T21:39:45.376164+00:00",
        "meta_object_name": "DIRECTV 10",
        "meta_object_id": "2007-032A",
        "meta_epoch": "2025-12-17T12:02:07.657728",
        "meta_mean_motion": 1.00269431,
        "meta_eccentricity": 3.618e-05,
        "meta_inclination": 0.0158,
        "meta_ra_of_asc_node": 172.9029,
        "meta_arg_of_pericenter": 34.5248,
        "meta_mean_anomaly": 316.679,
        "meta_ephemeris_type": 0,
        "meta_classification_type": "U",
        "meta_norad_cat_id": 31862,
        "meta_element_set_no": 999,
        "meta_rev_at_epoch": 4377,
        "meta_bstar": 0,
        "meta_mean_motion_dot": -7.8e-07,
        "meta_mean_motion_ddot": 0,
        "tle_line1": "1 31862U 07032A   25351.50147752 -.00000078  00000+0  00000+0 0  9993",
        "tle_line2": "2 31862   0.0158 172.9029 0000361  34.5248 316.6790  1.00269431 43771"
      },
      "geometry": {
        "type": "Point",
        "coordinates": [
          -51.102046018106144,
          0.0062831069725731385
        ]
      }
    },
    {
      "type": "Feature",
      "properties": {
        "norad_id": 32253,
        "name": "INTELSAT 11 (IS-11)",
        "group": "intelsat",
        "lat": 0.3093607915628934,
        "lon": -105.31307106128581,
        "alt_km": 36095.19036945582,
        "timestamp": "2025-12-17T21:39:45.376175+00:00",
        "meta_object_name": "INTELSAT 11 (IS-11)",
        "meta_object_id": "2007-044B",
        "meta_epoch": "2025-12-17T12:22:10.021728",
        "meta_mean_motion": 0.99051063,
        "meta_eccentricity": 0.00085996,
        "meta_inclination": 3.0921,
        "meta_ra_of_asc_node": 80.9241,
        "meta_arg_of_pericenter": 167.743,
        "meta_mean_anomaly": 227.9301,
        "meta_ephemeris_type": 0,
        "meta_classification_type": "U",
        "meta_norad_cat_id": 32253,
        "meta_element_set_no": 999,
        "meta_rev_at_epoch": 6665,
        "meta_bstar": 0,
        "meta_mean_motion_dot": 1.6e-07,
        "meta_mean_motion_ddot": 0,
        "tle_line1": "1 32253U 07044B   25351.51539377  .00000016  00000+0  00000+0 0  9991",
        "tle_line2": "2 32253   3.0921  80.9241 0008599 167.7430 227.9301  0.99051063 66655"
      },
      "geometry": {
        "type": "Point",
        "coordinates": [
          -105.31307106128581,
          0.3093607915628934
        ]
      }
    },
    {
      "type": "Feature",
      "properties": {
        "norad_id": 32388,
        "name": "HORIZONS-2",
        "group": "intelsat",
        "lat": -2.0667772569486917,
        "lon": -22.045069505774965,
        "alt_km": 35777.486876385265,
        "timestamp": "2025-12-17T21:39:45.376186+00:00",
        "meta_object_name": "HORIZONS-2",
        "meta_object_id": "2007-063B",
        "meta_epoch": "2025-12-17T12:58:32.058912",
        "meta_mean_motion": 1.00272838,
        "meta_eccentricity": 0.00045713,
        "meta_inclination": 2.1335,
        "meta_ra_of_asc_node": 82.912,
        "meta_arg_of_pericenter": 191.5368,
        "meta_mean_anomaly": 292.8131,
        "meta_ephemeris_type": 0,
        "meta_classification_type": "U",
        "meta_norad_cat_id": 32388,
        "meta_element_set_no": 999,
        "meta_rev_at_epoch": 6599,
        "meta_bstar": 0,
        "meta_mean_motion_dot": -2.3e-06,
        "meta_mean_motion_ddot": 0,
        "tle_line1": "1 32388U 07063B   25351.54064883 -.00000230  00000+0  00000+0 0  9998",
        "tle_line2": "2 32388   2.1335  82.9120 0004571 191.5368 292.8131  1.00272838 65998"
      },
      "geometry": {
        "type": "Point",
        "coordinates": [
          -22.045069505774965,
          -2.0667772569486917
        ]
      }
    },
    {
      "type": "Feature",
      "properties": {
        "norad_id": 32729,
        "name": "DIRECTV 11",
        "group": "intelsat",
        "lat": -0.0013973253216574197,
        "lon": -47.48140734681511,
        "alt_km": 35788.734889064406,
        "timestamp": "2025-12-17T21:39:45.376197+00:00",
        "meta_object_name": "DIRECTV 11",
        "meta_object_id": "2008-013A",
        "meta_epoch": "2025-12-17T12:01:21.617760",
        "meta_mean_motion": 1.00270372,
        "meta_eccentricity": 6.175e-05,
        "meta_inclination": 0.0324,
        "meta_ra_of_asc_node": 204.9349,
        "meta_arg_of_pericenter": 317.5061,
        "meta_mean_anomaly": 5.0932,
        "meta_ephemeris_type": 0,
        "meta_classification_type": "U",
        "meta_norad_cat_id": 32729,
        "meta_element_set_no": 999,
        "meta_rev_at_epoch": 4377,
        "meta_bstar": 0,
        "meta_mean_motion_dot": -1.01e-06,
        "meta_mean_motion_ddot": 0,
        "tle_line1": "1 32729U 08013A   25351.50094465 -.00000101  00000+0  00000+0 0  9995",
        "tle_line2": "2 32729   0.0324 204.9349 0000617 317.5061   5.0932  1.00270372 43774"
      },
      "geometry": {
        "type": "Point",
        "coordinates": [
          -47.48140734681511,
          -0.0013973253216574197
        ]
      }
    },
    {
      "type": "Feature",
      "properties": {
        "norad_id": 32951,
        "name": "GALAXY 18 (G-18)",
        "group": "intelsat",
        "lat": -0.0030883652646116217,
        "lon": -71.2892411572867,
        "alt_km": 35774.12265845684,
        "timestamp": "2025-12-17T21:39:45.376224+00:00",
        "meta_object_name": "GALAXY 18 (G-18)",
        "meta_object_id": "2008-024A",
        "meta_epoch": "2025-12-17T12:44:25.909152",
        "meta_mean_motion": 1.00272987,
        "meta_eccentricity": 0.00028458,
        "meta_inclination": 0.0048,
        "meta_ra_of_asc_node": 78.269,
        "meta_arg_of_pericenter": 194.822,
        "meta_mean_anomaly": 241.4236,
        "meta_ephemeris_type": 0,
        "meta_classification_type": "U",
        "meta_norad_cat_id": 32951,
        "meta_element_set_no": 999,
        "meta_rev_at_epoch": 4403,
        "meta_bstar": 0,
        "meta_mean_motion_dot": 5e-07,
        "meta_mean_motion_ddot": 0,
        "tle_line1": "1 32951U 08024A   25351.53085543  .00000050  00000+0  00000+0 0  9996",
        "tle_line2": "2 32951   0.0048  78.2690 0002845 194.8220 241.4236  1.00272987 44030"
      },
      "geometry": {
        "type": "Point",
        "coordinates": [
          -71.2892411572867,
          -0.0030883652646116217
        ]
      }
    },
    {
      "type": "Feature",
      "properties": {
        "norad_id": 33153,
        "name": "INTELSAT 25 (IS-25)",
        "group": "intelsat",
        "lat": -1.9700954411865101,
        "lon": 20.272761972140735,
        "alt_km": 35794.63604614564,
        "timestamp": "2025-12-17T21:39:45.376236+00:00",
        "meta_object_name": "INTELSAT 25 (IS-25)",
        "meta_object_id": "2008-034A",
        "meta_epoch": "2025-12-17T09:45:06.538752",
        "meta_mean_motion": 1.00270958,
        "meta_eccentricity": 0.00048131,
        "meta_inclination": 2.2392,
        "meta_ra_of_asc_node": 82.6002,
        "meta_arg_of_pericenter": 184.5096,
        "meta_mean_anomaly": 293.9529,
        "meta_ephemeris_type": 0,
        "meta_classification_type": "U",
        "meta_norad_cat_id": 33153,
        "meta_element_set_no": 999,
        "meta_rev_at_epoch": 6387,
        "meta_bstar": 0,
        "meta_mean_motion_dot": -2.01e-06,
        "meta_mean_motion_ddot": 0,
        "tle_line1": "1 33153U 08034A   25351.40632568 -.00000201  00000+0  00000+0 0  9992",
        "tle_line2": "2 33153   2.2392  82.6002 0004813 184.5096 293.9529  1.00270958 63877"
      },
      "geometry": {
        "type": "Point",
        "coordinates": [
          20.272761972140735,
          -1.9700954411865101
        ]
      }
    }
  ]
}